[{"OBJECT_NAME":"TIANMU-1 22","OBJECT_ID":"2023-208D","EPOCH":"2026-03-09T22:39:05.738688","MEAN_MOTION":15.29457749,"ECCENTRICITY":0.00031332,"INCLINATION":97.4379,"RA_OF_ASC_NODE":184.9419,"ARG_OF_PERICENTER":351.9312,"MEAN_ANOMALY":8.1877,"EPHEMERIS_TYPE":0,"CLASSIFICATION_TYPE":"U","NORAD_CAT_ID":58663,"ELEMENT_SET_NO":999,"REV_AT_EPOCH":12215,"BSTAR":0.00038239675,"MEAN_MOTION_DOT":0.00010851,"MEAN_MOTION_DDOT":0},{"OBJECT_NAME":"STARLINK-35602","OBJECT_ID":"2025-257Z","EPOCH":"2026-03-09T16:35:59.042976","MEAN_MOTION":15.30189236,"ECCENTRICITY":9.482e-5,"INCLINATION":53.158,"RA_OF_ASC_NODE":217.0219,"ARG_OF_PERICENTER":66.8442,"MEAN_ANOMALY":293.2658,"EPHEMERIS_TYPE":0,"CLASSIFICATION_TYPE":"U","NORAD_CAT_ID":66403,"ELEMENT_SET_NO":999,"REV_AT_EPOCH":1973,"BSTAR":0.0012900137,"MEAN_MOTION_DOT":0.0003803,"MEAN_MOTION_DDOT":0}]
